PELICAN-6               
1 66703U 25276AP  26068.70709364  .00077979  00000+0  29726-2 0  9998
2 66703  97.4276 144.2072 0003569 157.8575 202.2819 15.26377980 15334
STARLINK-36462          
1 67321U 26002S   26067.10493762  .00041128  00000+0  14935-2 0  9991
2 67321  42.9979 334.4660 0001265 246.6854 113.3865 15.27630310 10833
